{"type": "FeatureCollection", "features": [{"type": "Feature", "properties": {"norad_id": 28054, "name": "DMSP 5D-3 F16 (USA 172)", "group": "weather", "lat": 28.932150747088215, "lon": -179.42365548772258, "alt_km": 847.6135142572066, "timestamp": "2025-12-04T03:47:54.197099+00:00", "meta": {"OBJECT_NAME": "DMSP 5D-3 F16 (USA 172)", "OBJECT_ID": "2003-048A", "EPOCH": "2025-12-03T19:25:08.762880", "MEAN_MOTION": 14.14419024, "ECCENTRICITY": 0.0006872, "INCLINATION": 99.0052, "RA_OF_ASC_NODE": 355.1957, "ARG_OF_PERICENTER": 348.0797, "MEAN_ANOMALY": 185.6862, "EPHEMERIS_TYPE": 0, "CLASSIFICATION_TYPE": "U", "NORAD_CAT_ID": 28054, "ELEMENT_SET_NO": 999, "REV_AT_EPOCH": 14186, "BSTAR": 0.00013984, "MEAN_MOTION_DOT": 2.22e-06, "MEAN_MOTION_DDOT": 0}, "tle": {"line1": "1 28054U 03048A   25337.80912920  .00000222  00000+0  13984-3 0  9998", "line2": "2 28054  99.0052 355.1957 0006872 348.0797 185.6862 14.14419024141868"}}, "geometry": {"type": "Point", "coordinates": [-179.42365548772258, 28.932150747088215]}}, {"type": "Feature", "properties": {"norad_id": 28912, "name": "METEOSAT-9 (MSG-2)", "group": "weather", "lat": 7.732243937465901, "lon": 176.06263354856708, "alt_km": 35778.04258272319, "timestamp": "2025-12-04T03:47:54.197166+00:00", "meta": {"OBJECT_NAME": "METEOSAT-9 (MSG-2)", "OBJECT_ID": "2005-049B", "EPOCH": "2025-12-02T20:50:55.807872", "MEAN_MOTION": 1.00271253, "ECCENTRICITY": 0.00040042, "INCLINATION": 8.9157, "RA_OF_ASC_NODE": 56.0648, "ARG_OF_PERICENTER": 185.08, "MEAN_ANOMALY": 189.154, "EPHEMERIS_TYPE": 0, "CLASSIFICATION_TYPE": "U", "NORAD_CAT_ID": 28912, "ELEMENT_SET_NO": 999, "REV_AT_EPOCH": 503, "BSTAR": 0, "MEAN_MOTION_DOT": 1.39e-06, "MEAN_MOTION_DDOT": 0}, "tle": {"line1": "1 28912U 05049B   25336.86870148  .00000139  00000+0  00000+0 0  9992", "line2": "2 28912   8.9157  56.0648 0004004 185.0800 189.1540  1.00271253  5030"}}, "geometry": {"type": "Point", "coordinates": [176.06263354856708, 7.732243937465901]}}, {"type": "Feature", "properties": {"norad_id": 29522, "name": "DMSP 5D-3 F17 (USA 191)", "group": "weather", "lat": 73.39024735323271, "lon": -47.316109197804536, "alt_km": 842.1497885322879, "timestamp": "2025-12-04T03:47:54.197187+00:00", "meta": {"OBJECT_NAME": "DMSP 5D-3 F17 (USA 191)", "OBJECT_ID": "2006-050A", "EPOCH": "2025-12-03T18:57:18.052992", "MEAN_MOTION": 14.14913265, "ECCENTRICITY": 0.0009164, "INCLINATION": 98.7394, "RA_OF_ASC_NODE": 343.3652, "ARG_OF_PERICENTER": 252.8756, "MEAN_ANOMALY": 107.1414, "EPHEMERIS_TYPE": 0, "CLASSIFICATION_TYPE": "U", "NORAD_CAT_ID": 29522, "ELEMENT_SET_NO": 999, "REV_AT_EPOCH": 98478, "BSTAR": 0.00016733, "MEAN_MOTION_DOT": 2.8e-06, "MEAN_MOTION_DDOT": 0}, "tle": {"line1": "1 29522U 06050A   25337.78979228  .00000280  00000+0  16733-3 0  9995", "line2": "2 29522  98.7394 343.3652 0009164 252.8756 107.1414 14.14913265984783"}}, "geometry": {"type": "Point", "coordinates": [-47.316109197804536, 73.39024735323271]}}, {"type": "Feature", "properties": {"norad_id": 32958, "name": "FENGYUN 3A", "group": "weather", "lat": 7.974425859979626, "lon": -83.35849405374515, "alt_km": 823.6775874063924, "timestamp": "2025-12-04T03:47:54.197207+00:00", "meta": {"OBJECT_NAME": "FENGYUN 3A", "OBJECT_ID": "2008-026A", "EPOCH": "2025-12-03T10:50:37.603968", "MEAN_MOTION": 14.19509646, "ECCENTRICITY": 0.0008349, "INCLINATION": 98.6682, "RA_OF_ASC_NODE": 277.1747, "ARG_OF_PERICENTER": 339.0823, "MEAN_ANOMALY": 21.001, "EPHEMERIS_TYPE": 0, "CLASSIFICATION_TYPE": "U", "NORAD_CAT_ID": 32958, "ELEMENT_SET_NO": 999, "REV_AT_EPOCH": 90763, "BSTAR": 0.00010748, "MEAN_MOTION_DOT": 1.83e-06, "MEAN_MOTION_DDOT": 0}, "tle": {"line1": "1 32958U 08026A   25337.45182412  .00000183  00000+0  10748-3 0  9994", "line2": "2 32958  98.6682 277.1747 0008349 339.0823  21.0010 14.19509646907639"}}, "geometry": {"type": "Point", "coordinates": [-83.35849405374515, 7.974425859979626]}}, {"type": "Feature", "properties": {"norad_id": 35491, "name": "GOES 14", "group": "weather", "lat": -1.0293920208667542, "lon": 21.889214387476024, "alt_km": 35800.60785131528, "timestamp": "2025-12-04T03:47:54.197234+00:00", "meta": {"OBJECT_NAME": "GOES 14", "OBJECT_ID": "2009-033A", "EPOCH": "2025-12-03T09:48:58.361184", "MEAN_MOTION": 1.00272644, "ECCENTRICITY": 0.000418, "INCLINATION": 1.173, "RA_OF_ASC_NODE": 85.5185, "ARG_OF_PERICENTER": 150.4444, "MEAN_ANOMALY": 235.4417, "EPHEMERIS_TYPE": 0, "CLASSIFICATION_TYPE": "U", "NORAD_CAT_ID": 35491, "ELEMENT_SET_NO": 999, "REV_AT_EPOCH": 463, "BSTAR": 0, "MEAN_MOTION_DOT": -5e-07, "MEAN_MOTION_DDOT": 0}, "tle": {"line1": "1 35491U 09033A   25337.40900881 -.00000050  00000+0  00000+0 0  9991", "line2": "2 35491   1.1730  85.5185 0004180 150.4444 235.4417  1.00272644  4638"}}, "geometry": {"type": "Point", "coordinates": [21.889214387476024, -1.0293920208667542]}}, {"type": "Feature", "properties": {"norad_id": 35951, "name": "DMSP 5D-3 F18 (USA 210)", "group": "weather", "lat": -51.4645217878408, "lon": -34.07427385275475, "alt_km": 856.4298539252377, "timestamp": "2025-12-04T03:47:54.197249+00:00", "meta": {"OBJECT_NAME": "DMSP 5D-3 F18 (USA 210)", "OBJECT_ID": "2009-057A", "EPOCH": "2025-12-03T11:04:19.663680", "MEAN_MOTION": 14.14760563, "ECCENTRICITY": 0.0012115, "INCLINATION": 98.8824, "RA_OF_ASC_NODE": 313.909, "ARG_OF_PERICENTER": 86.8754, "MEAN_ANOMALY": 273.3805, "EPHEMERIS_TYPE": 0, "CLASSIFICATION_TYPE": "U", "NORAD_CAT_ID": 35951, "ELEMENT_SET_NO": 999, "REV_AT_EPOCH": 83191, "BSTAR": 0.00021942, "MEAN_MOTION_DOT": 3.79e-06, "MEAN_MOTION_DDOT": 0}, "tle": {"line1": "1 35951U 09057A   25337.46133870  .00000379  00000+0  21942-3 0  9995", "line2": "2 35951  98.8824 313.9090 0012115  86.8754 273.3805 14.14760563831914"}}, "geometry": {"type": "Point", "coordinates": [-34.07427385275475, -51.4645217878408]}}, {"type": "Feature", "properties": {"norad_id": 36411, "name": "EWS-G2 (GOES 15)", "group": "weather", "lat": 0.7413128320330477, "lon": -168.37862486018358, "alt_km": 35776.085515255996, "timestamp": "2025-12-04T03:47:54.197262+00:00", "meta": {"OBJECT_NAME": "EWS-G2 (GOES 15)", "OBJECT_ID": "2010-008A", "EPOCH": "2025-12-03T20:07:48.026784", "MEAN_MOTION": 1.00267792, "ECCENTRICITY": 0.0005988, "INCLINATION": 0.7902, "RA_OF_ASC_NODE": 86.0551, "ARG_OF_PERICENTER": 169.9666, "MEAN_ANOMALY": 180.3456, "EPHEMERIS_TYPE": 0, "CLASSIFICATION_TYPE": "U", "NORAD_CAT_ID": 36411, "ELEMENT_SET_NO": 999, "REV_AT_EPOCH": 5767, "BSTAR": 0, "MEAN_MOTION_DOT": 5.5e-07, "MEAN_MOTION_DDOT": 0}, "tle": {"line1": "1 36411U 10008A   25337.83875031  .00000055  00000+0  00000+0 0  9997", "line2": "2 36411   0.7902  86.0551 0005988 169.9666 180.3456  1.00267792 57679"}}, "geometry": {"type": "Point", "coordinates": [-168.37862486018358, 0.7413128320330477]}}, {"type": "Feature", "properties": {"norad_id": 36744, "name": "COMS 1", "group": "weather", "lat": -0.046151827932618135, "lon": -101.63816655645398, "alt_km": 35781.98862634198, "timestamp": "2025-12-04T03:47:54.197275+00:00", "meta": {"OBJECT_NAME": "COMS 1", "OBJECT_ID": "2010-032A", "EPOCH": "2025-12-03T17:35:32.728416", "MEAN_MOTION": 1.00269913, "ECCENTRICITY": 0.0001111, "INCLINATION": 4.318, "RA_OF_ASC_NODE": 78.097, "ARG_OF_PERICENTER": 184.7227, "MEAN_ANOMALY": 202.0533, "EPHEMERIS_TYPE": 0, "CLASSIFICATION_TYPE": "U", "NORAD_CAT_ID": 36744, "ELEMENT_SET_NO": 999, "REV_AT_EPOCH": 4913, "BSTAR": 0, "MEAN_MOTION_DOT": -3.29e-06, "MEAN_MOTION_DDOT": 0}, "tle": {"line1": "1 36744U 10032A   25337.73301769 -.00000329  00000+0  00000+0 0  9999", "line2": "2 36744   4.3180  78.0970 0001111 184.7227 202.0533  1.00269913 49131"}}, "geometry": {"type": "Point", "coordinates": [-101.63816655645398, -0.046151827932618135]}}, {"type": "Feature", "properties": {"norad_id": 37214, "name": "FENGYUN 3B", "group": "weather", "lat": -80.90098540702384, "lon": 99.4459359151354, "alt_km": 856.0255439357561, "timestamp": "2025-12-04T03:47:54.197286+00:00", "meta": {"OBJECT_NAME": "FENGYUN 3B", "OBJECT_ID": "2010-059A", "EPOCH": "2025-12-03T11:44:50.576064", "MEAN_MOTION": 14.14785545, "ECCENTRICITY": 0.0022444, "INCLINATION": 98.9921, "RA_OF_ASC_NODE": 17.4017, "ARG_OF_PERICENTER": 23.8286, "MEAN_ANOMALY": 83.3589, "EPHEMERIS_TYPE": 0, "CLASSIFICATION_TYPE": "U", "NORAD_CAT_ID": 37214, "ELEMENT_SET_NO": 999, "REV_AT_EPOCH": 77975, "BSTAR": 0.00010265, "MEAN_MOTION_DOT": 1.53e-06, "MEAN_MOTION_DDOT": 0}, "tle": {"line1": "1 37214U 10059A   25337.48947426  .00000153  00000+0  10265-3 0  9991", "line2": "2 37214  98.9921  17.4017 0022444  23.8286  83.3589 14.14785545779757"}}, "geometry": {"type": "Point", "coordinates": [99.4459359151354, -80.90098540702384]}}, {"type": "Feature", "properties": {"norad_id": 37849, "name": "SUOMI NPP", "group": "weather", "lat": -32.87273638525315, "lon": -78.693069063915, "alt_km": 834.4230189392892, "timestamp": "2025-12-04T03:47:54.197298+00:00", "meta": {"OBJECT_NAME": "SUOMI NPP", "OBJECT_ID": "2011-061A", "EPOCH": "2025-12-03T11:02:17.850912", "MEAN_MOTION": 14.19509901, "ECCENTRICITY": 0.0001899, "INCLINATION": 98.7759, "RA_OF_ASC_NODE": 274.8857, "ARG_OF_PERICENTER": 136.8156, "MEAN_ANOMALY": 223.3169, "EPHEMERIS_TYPE": 0, "CLASSIFICATION_TYPE": "U", "NORAD_CAT_ID": 37849, "ELEMENT_SET_NO": 999, "REV_AT_EPOCH": 73067, "BSTAR": 9.5433e-05, "MEAN_MOTION_DOT": 1.57e-06, "MEAN_MOTION_DDOT": 0}, "tle": {"line1": "1 37849U 11061A   25337.45992883  .00000157  00000+0  95433-4 0  9998", "line2": "2 37849  98.7759 274.8857 0001899 136.8156 223.3169 14.19509901730674"}}, "geometry": {"type": "Point", "coordinates": [-78.693069063915, -32.87273638525315]}}]}